NORAD_CAT_ID,OBJECT_NAME,OBJECT_TYPE,EPOCH,MEAN_MOTION,ECCENTRICITY,INCLINATION,RA_OF_ASC_NODE,ARG_OF_PERICENTER,MEAN_ANOMALY,BSTAR,MEAN_MOTION_DOT,MEAN_MOTION_DDOT,TLE_LINE0,TLE_LINE1,TLE_LINE2,SEMIMAJOR_AXIS,PERIOD,APOGEE,PERIGEE,DECAYED
53558.0,STARLINK-4494,PAYLOAD,2023-10-09 12:50:15,15.08839084,0.0001546,53.216,58.9863,96.8236,263.2932,3.7374e-05,3.07e-06,0.0,0 STARLINK-4494,1 53558U 22101AH  23282.53489718  .00000307  00000-0  37374-4 0  9992,2 53558  53.2160  58.9863 0001546  96.8236 263.2932 15.08839084 63860,6917.883,95.438,540.818,538.679,0.0
53558.0,STARLINK-4494,PAYLOAD,2023-10-09 16:01:01,15.08843265,0.000139,53.2165,58.392,89.5691,270.546,0.00012585,1.716e-05,0.0,0 STARLINK-4494,1 53558U 22101AH  23282.66737580  .00001716  00000-0  12585-3 0  9990,2 53558  53.2165  58.3920 0001390  89.5691 270.5460 15.08843265 63889,6917.87,95.437,540.697,538.774,0.0
53558.0,STARLINK-4494,PAYLOAD,2023-10-10 12:41:01,15.08849535,0.0001449,53.2173,54.5281,85.731,274.3848,0.00026807,3.982e-05,0.0,0 STARLINK-4494,1 53558U 22101AH  23283.52849400  .00003982  00000-0  26807-3 0  9990,2 53558  53.2173  54.5281 0001449  85.7310 274.3848 15.08849535 64011,6917.851,95.437,540.719,538.714,0.0
53558.0,STARLINK-4494,PAYLOAD,2023-10-10 15:51:47,15.08859367,0.0001448,53.2177,53.9332,85.1674,274.9484,0.00053525,8.245e-05,0.0,0 STARLINK-4494,1 53558U 22101AH  23283.66097063  .00008245  00000-0  53525-3 0  9999,2 53558  53.2177  53.9332 0001448  85.1674 274.9484 15.08859367 63375,6917.821,95.436,540.688,538.684,0.0
53558.0,STARLINK-4494,PAYLOAD,2023-10-11 09:21:02,15.08838238,0.0001568,53.2179,50.6599,90.3349,269.7823,7.9504e-05,9.77e-06,0.0,0 STARLINK-4494,1 53558U 22101AH  23284.38961596  .00000977  00000-0  79504-4 0  9990,2 53558  53.2179  50.6599 0001568  90.3349 269.7823 15.08838238 63481,6917.886,95.438,540.835,538.666,0.0
53558.0,STARLINK-4494,PAYLOAD,2023-10-11 14:07:12,15.08836345,0.0001533,53.2179,49.7669,85.4984,274.6184,1.3978e-05,-6.6e-07,0.0,0 STARLINK-4494,1 53558U 22101AH  23284.58833817 -.00000066  00000-0  13978-4 0  9999,2 53558  53.2179  49.7669 0001533  85.4984 274.6184 15.08836345 64179,6917.892,95.438,540.817,538.696,0.0
53558.0,STARLINK-4494,PAYLOAD,2023-10-12 12:22:36,15.08841846,0.0001462,53.2178,45.6067,79.3756,280.7401,0.00023748,3.494e-05,0.0,0 STARLINK-4494,1 53558U 22101AH  23285.51570024  .00003494  00000-0  23748-3 0  9993,2 53558  53.2178  45.6067 0001462  79.3756 280.7401 15.08841846 64313,6917.875,95.437,540.751,538.728,0.0
53558.0,STARLINK-4494,PAYLOAD,2023-10-12 17:08:45,15.08854578,0.0001714,53.2187,44.7169,84.8364,275.2823,0.00078009,0.00012154,0.0,0 STARLINK-4494,1 53558U 22101AH  23285.71441855  .00012154  00000-0  78009-3 0  9997,2 53558  53.2187  44.7169 0001714  84.8364 275.2823 15.08854578 63684,6917.836,95.437,540.887,538.515,0.0
53558.0,STARLINK-4494,PAYLOAD,2023-10-13 01:05:41,15.08840472,0.0001605,53.2178,43.2268,82.8192,277.2983,0.00045225,6.917e-05,0.0,0 STARLINK-4494,1 53558U 22101AH  23286.04562214  .00006917  00000-0  45225-3 0  9991,2 53558  53.2178  43.2268 0001605  82.8192 277.2983 15.08840472 63737,6917.879,95.438,540.854,538.634,0.0
53558.0,STARLINK-4494,PAYLOAD,2023-10-13 13:48:46,15.08842575,0.000182,53.2184,40.8491,80.8156,279.3042,0.00025926,3.841e-05,0.0,0 STARLINK-4494,1 53558U 22101AH  23286.57554322  .00003841  00000-0  25926-3 0  9999,2 53558  53.2184  40.8491 0001820  80.8156 279.3042 15.08842575 64479,6917.873,95.437,540.997,538.478,0.0
53558.0,STARLINK-4494,PAYLOAD,2023-10-13 15:24:10,15.08843562,0.0001769,53.2184,40.5505,83.2983,276.8211,0.00034301,5.176e-05,0.0,0 STARLINK-4494,1 53558U 22101AH  23286.64178275  .00005176  00000-0  34301-3 0  9996,2 53558  53.2184  40.5505 0001769  83.2983 276.8211 15.08843562 64487,6917.87,95.437,540.958,538.511,0.0
53558.0,STARLINK-4494,PAYLOAD,2023-10-14 07:18:01,15.08846224,0.0001789,53.2179,37.58,79.1223,280.9971,0.00030903,4.634e-05,0.0,0 STARLINK-4494,1 53558U 22101AH  23287.30418192  .00004634  00000-0  30903-3 0  9997,2 53558  53.2179  37.5800 0001789  79.1223 280.9971 15.08846224 63923,6917.861,95.437,540.964,538.489,0.0
53558.0,STARLINK-4494,PAYLOAD,2023-10-14 13:39:33,15.08852711,0.0001473,53.2171,36.3879,95.2102,264.9058,0.00035859,5.426e-05,0.0,0 STARLINK-4494,1 53558U 22101AH  23287.56913781  .00005426  00000-0  35859-3 0  9994,2 53558  53.2171  36.3879 0001473  95.2102 264.9058 15.08852711 64627,6917.842,95.437,540.726,538.688,0.0
53558.0,STARLINK-4494,PAYLOAD,2023-10-15 11:54:56,15.08861952,0.0001249,53.2173,32.2257,92.0595,268.054,0.00045899,7.029e-05,0.0,0 STARLINK-4494,1 53558U 22101AH  23288.49648881  .00007029  00000-0  45899-3 0  9999,2 53558  53.2173  32.2257 0001249  92.0595 268.0540 15.08861952 64107,6917.813,95.436,540.542,538.814,0.0
53558.0,STARLINK-4494,PAYLOAD,2023-10-15 13:30:19,15.08866893,0.0001227,53.2171,31.9288,90.599,269.5143,0.00058954,9.114e-05,0.0,0 STARLINK-4494,1 53558U 22101AH  23288.56272699  .00009114  00000-0  58954-3 0  9990,2 53558  53.2171  31.9288 0001227  90.5990 269.5143 15.08866893 64770,6917.798,95.436,540.512,538.814,0.0
53558.0,STARLINK-4494,PAYLOAD,2023-10-15 16:41:05,15.08873401,0.0001334,53.2171,31.3329,97.9587,262.1557,0.00071762,0.00011162,0.0,0 STARLINK-4494,1 53558U 22101AH  23288.69520320  .00011162  00000-0  71762-3 0  9999,2 53558  53.2171  31.3329 0001334  97.9587 262.1557 15.08873401 64795,6917.778,95.435,540.566,538.72,0.0
53558.0,STARLINK-4494,PAYLOAD,2023-10-16 00:38:01,15.08843664,0.0001736,53.2178,29.8457,92.2776,267.8415,-0.00016497,-2.913e-05,0.0,0 STARLINK-4494,1 53558U 22101AH  23289.02641100 -.00002913  00000-0 -16497-3 0  9997,2 53558  53.2178  29.8457 0001736  92.2776 267.8415 15.08843664 64186,6917.869,95.437,540.935,538.533,0.0
53558.0,STARLINK-4494,PAYLOAD,2023-10-16 11:45:44,15.08830896,0.0001683,53.2186,27.7635,119.0373,241.0788,-0.00026455,-4.495e-05,0.0,0 STARLINK-4494,1 53558U 22101AH  23289.49009652 -.00004495  00000-0 -26455-3 0  9990,2 53558  53.2186  27.7635 0001683 119.0373 241.0788 15.08830896 64250,6917.908,95.438,540.938,538.609,0.0
53558.0,STARLINK-4494,PAYLOAD,2023-10-16 13:21:07,15.08830354,0.000156,53.2191,27.4672,115.4522,244.6631,-0.00026804,-4.55e-05,0.0,0 STARLINK-4494,1 53558U 22101AH  23289.55633758 -.00004550  00000-0 -26804-3 0  9997,2 53558  53.2191  27.4672 0001560 115.4522 244.6631 15.08830354 64923,6917.91,95.438,540.854,538.696,0.0
53558.0,STARLINK-4494,PAYLOAD,2023-10-17 13:11:54,15.08846037,0.0001586,53.2192,23.0098,77.5557,282.5613,0.00026946,4.004e-05,0.0,0 STARLINK-4494,1 53558U 22101AH  23290.54994101  .00004004  00000-0  26946-3 0  9999,2 53558  53.2192  23.0098 0001586  77.5557 282.5613 15.08846037 64412,6917.862,95.437,540.824,538.63,0.0
53558.0,STARLINK-4494,PAYLOAD,2023-10-17 22:44:14,15.08839389,0.0001346,53.218,21.2223,80.3742,279.7402,0.00044621,6.82e-05,0.0,0 STARLINK-4494,1 53558U 22101AH  23290.94738695  .00006820  00000-0  44621-3 0  9995,2 53558  53.2180  21.2223 0001346  80.3742 279.7402 15.08839389 65137,6917.882,95.438,540.678,538.816,0.0
53558.0,STARLINK-4494,PAYLOAD,2023-10-18 13:02:42,15.0883923,0.0001261,53.2192,18.5511,99.1076,261.0058,0.00034736,5.245e-05,0.0,0 STARLINK-4494,1 53558U 22101AH  23291.54354846  .00005245  00000-0  34736-3 0  9990,2 53558  53.2192  18.5511 0001261  99.1076 261.0058 15.08839230 64565,6917.883,95.438,540.62,538.875,0.0
53558.0,STARLINK-4494,PAYLOAD,2023-10-18 22:35:01,15.08850312,0.0001325,53.218,16.7655,90.3487,269.7657,0.0003886,5.904e-05,0.0,0 STARLINK-4494,1 53558U 22101AH  23291.94098403  .00005904  00000-0  38860-3 0  9992,2 53558  53.2180  16.7655 0001325  90.3487 269.7657 15.08850312 65285,6917.849,95.437,540.63,538.797,0.0
53558.0,STARLINK-4494,PAYLOAD,2023-10-19 11:18:06,15.08850536,0.0001766,53.2198,14.387,93.9304,266.1891,0.0002387,3.514e-05,0.0,0 STARLINK-4494,1 53558U 22101AH  23292.47090313  .00003514  00000-0  23870-3 0  9993,2 53558  53.2198  14.3870 0001766  93.9304 266.1891 15.08850536 65361,6917.848,95.437,540.935,538.491,0.0
53558.0,STARLINK-4494,PAYLOAD,2023-10-19 22:25:48,15.08843638,0.0001575,53.2174,12.3017,87.4551,272.6621,9.3206e-05,1.196e-05,0.0,0 STARLINK-4494,1 53558U 22101AH  23292.93458375  .00001196  00000-0  93206-4 0  9995,2 53558  53.2174  12.3017 0001575  87.4551 272.6621 15.08843638 64778,6917.869,95.437,540.824,538.645,0.0
53558.0,STARLINK-4494,PAYLOAD,2023-10-20 11:08:53,15.08830692,0.0001797,53.2192,9.9251,99.1683,260.9513,-0.00011933,-2.186e-05,0.0,0 STARLINK-4494,1 53558U 22101AH  23293.46451298 -.00002186  00000-0 -11933-3 0  9999,2 53558  53.2192   9.9251 0001797  99.1683 260.9513 15.08830692 64857,6917.909,95.438,541.017,538.531,0.0
53558.0,STARLINK-4494,PAYLOAD,2023-10-20 14:19:40,15.08832055,0.0001631,53.2187,9.3308,96.484,263.6338,-9.0148e-05,-1.722e-05,0.0,0 STARLINK-4494,1 53558U 22101AH  23293.59699237 -.00001722  00000-0 -90148-4 0  9991,2 53558  53.2187   9.3308 0001631  96.4840 263.6338 15.08832055 65536,6917.905,95.438,540.898,538.641,0.0
53558.0,STARLINK-4494,PAYLOAD,2023-10-21 10:59:40,15.08844788,0.0001817,53.2194,5.4642,99.276,260.8438,0.00010065,1.314e-05,0.0,0 STARLINK-4494,1 53558U 22101AH  23294.45810890  .00001314  00000-0  10065-3 0  9991,2 53558  53.2194   5.4642 0001817  99.2760 260.8438 15.08844788 65008,6917.866,95.437,540.988,538.474,0.0
53558.0,STARLINK-4494,PAYLOAD,2023-10-21 22:07:22,15.08842466,0.0001591,53.218,3.3807,98.4579,261.6593,0.00017012,2.421e-05,0.0,0 STARLINK-4494,1 53558U 22101AH  23294.92179015  .00002421  00000-0  17012-3 0  9999,2 53558  53.2180   3.3807 0001591  98.4579 261.6593 15.08842466 65733,6917.873,95.437,540.838,538.637,0.0
53558.0,STARLINK-4494,PAYLOAD,2023-10-22 10:50:28,15.08839659,0.0001738,53.2183,1.0027,101.6843,258.4344,0.00021214,3.09e-05,0.0,0 STARLINK-4494,1 53558U 22101AH  23295.45171329  .00003090  00000-0  21214-3 0  9990,2 53558  53.2183   1.0027 0001738 101.6843 258.4344 15.08839659 65153,6917.881,95.438,540.949,538.544,0.0
